CCSDS_OMM_VERS = 2.0
CREATION_DATE  = 
ORIGINATOR     = 

OBJECT_NAME    = STARLINK-36280
OBJECT_ID      = 2025-304V
CENTER_NAME    = EARTH
REF_FRAME      = TEME
TIME_SYSTEM    = UTC
MEAN_ELEMENT_THEORY = SGP/SGP4

EPOCH          = 2026-01-02T22:39:58.994784
MEAN_MOTION    = 15.62032218
ECCENTRICITY   = .00041196
INCLINATION    = 69.9984
RA_OF_ASC_NODE = 347.5553
ARG_OF_PERICENTER = 169.8644
MEAN_ANOMALY   = 190.2631

EPHEMERIS_TYPE = 0
CLASSIFICATION_TYPE = U
NORAD_CAT_ID   = 67211
ELEMENT_SET_NO = 999
REV_AT_EPOCH   = 385
BSTAR          = -.50149954E-2
MEAN_MOTION_DOT = -.418346E-2
MEAN_MOTION_DDOT = 0

CCSDS_OMM_VERS = 2.0
CREATION_DATE  = 
ORIGINATOR     = 

OBJECT_NAME    = STARLINK-36213
OBJECT_ID      = 2025-304W
CENTER_NAME    = EARTH
REF_FRAME      = TEME
TIME_SYSTEM    = UTC
MEAN_ELEMENT_THEORY = SGP/SGP4

EPOCH          = 2026-01-02T19:34:30.305856
MEAN_MOTION    = 15.65271453
ECCENTRICITY   = .00231497
INCLINATION    = 69.9986
RA_OF_ASC_NODE = 347.9122
ARG_OF_PERICENTER = 204.3783
MEAN_ANOMALY   = 155.6318

EPHEMERIS_TYPE = 0
CLASSIFICATION_TYPE = U
NORAD_CAT_ID   = 67212
ELEMENT_SET_NO = 999
REV_AT_EPOCH   = 383
BSTAR          = .28535547E-1
MEAN_MOTION_DOT = .3335367E-1
MEAN_MOTION_DDOT = 0

CCSDS_OMM_VERS = 2.0
CREATION_DATE  = 
ORIGINATOR     = 

OBJECT_NAME    = STARLINK-36199
OBJECT_ID      = 2025-304X
CENTER_NAME    = EARTH
REF_FRAME      = TEME
TIME_SYSTEM    = UTC
MEAN_ELEMENT_THEORY = SGP/SGP4

EPOCH          = 2026-01-02T19:33:35.910144
MEAN_MOTION    = 15.67964212
ECCENTRICITY   = .00246673
INCLINATION    = 69.9995
RA_OF_ASC_NODE = 347.9078
ARG_OF_PERICENTER = 232.4130
MEAN_ANOMALY   = 127.4825

EPHEMERIS_TYPE = 0
CLASSIFICATION_TYPE = U
NORAD_CAT_ID   = 67213
ELEMENT_SET_NO = 999
REV_AT_EPOCH   = 383
BSTAR          = .60513177E-1
MEAN_MOTION_DOT = .8214838E-1
MEAN_MOTION_DDOT = 0

CCSDS_OMM_VERS = 2.0
CREATION_DATE  = 
ORIGINATOR     = 

OBJECT_NAME    = STARLINK-36203
OBJECT_ID      = 2025-304Y
CENTER_NAME    = EARTH
REF_FRAME      = TEME
TIME_SYSTEM    = UTC
MEAN_ELEMENT_THEORY = SGP/SGP4

EPOCH          = 2026-01-02T21:06:17.145504
MEAN_MOTION    = 15.62039830
ECCENTRICITY   = .00064949
INCLINATION    = 69.9998
RA_OF_ASC_NODE = 347.7327
ARG_OF_PERICENTER = 310.2947
MEAN_ANOMALY   = 49.7677

EPHEMERIS_TYPE = 0
CLASSIFICATION_TYPE = U
NORAD_CAT_ID   = 67214
ELEMENT_SET_NO = 999
REV_AT_EPOCH   = 384
BSTAR          = -.96900445E-2
MEAN_MOTION_DOT = -.775143E-2
MEAN_MOTION_DDOT = 0

CCSDS_OMM_VERS = 2.0
CREATION_DATE  = 
ORIGINATOR     = 

OBJECT_NAME    = STARLINK-36221
OBJECT_ID      = 2025-304Z
CENTER_NAME    = EARTH
REF_FRAME      = TEME
TIME_SYSTEM    = UTC
MEAN_ELEMENT_THEORY = SGP/SGP4

EPOCH          = 2026-01-02T21:05:47.158656
MEAN_MOTION    = 15.62180189
ECCENTRICITY   = .00073503
INCLINATION    = 70.0003
RA_OF_ASC_NODE = 347.7295
ARG_OF_PERICENTER = 308.0155
MEAN_ANOMALY   = 52.0373

EPHEMERIS_TYPE = 0
CLASSIFICATION_TYPE = U
NORAD_CAT_ID   = 67215
ELEMENT_SET_NO = 999
REV_AT_EPOCH   = 384
BSTAR          = -.56529625E-2
MEAN_MOTION_DOT = -.471888E-2
MEAN_MOTION_DDOT = 0

CCSDS_OMM_VERS = 2.0
CREATION_DATE  = 
ORIGINATOR     = 

OBJECT_NAME    = STARLINK-36212
OBJECT_ID      = 2025-304AA
CENTER_NAME    = EARTH
REF_FRAME      = TEME
TIME_SYSTEM    = UTC
MEAN_ELEMENT_THEORY = SGP/SGP4

EPOCH          = 2026-01-02T22:37:03.386784
MEAN_MOTION    = 15.63537687
ECCENTRICITY   = .00116846
INCLINATION    = 70.0002
RA_OF_ASC_NODE = 347.5506
ARG_OF_PERICENTER = 227.4769
MEAN_ANOMALY   = 132.5438

EPHEMERIS_TYPE = 0
CLASSIFICATION_TYPE = U
NORAD_CAT_ID   = 67216
ELEMENT_SET_NO = 999
REV_AT_EPOCH   = 385
BSTAR          = .3077978E-2
MEAN_MOTION_DOT = .297352E-2
MEAN_MOTION_DDOT = 0

CCSDS_OMM_VERS = 2.0
CREATION_DATE  = 
ORIGINATOR     = 

OBJECT_NAME    = STARLINK-36216
OBJECT_ID      = 2025-304AB
CENTER_NAME    = EARTH
REF_FRAME      = TEME
TIME_SYSTEM    = UTC
MEAN_ELEMENT_THEORY = SGP/SGP4

EPOCH          = 2026-01-02T22:37:04.055520
MEAN_MOTION    = 15.61746625
ECCENTRICITY   = .00059625
INCLINATION    = 69.9985
RA_OF_ASC_NODE = 347.5480
ARG_OF_PERICENTER = 313.8791
MEAN_ANOMALY   = 46.1907

EPHEMERIS_TYPE = 0
CLASSIFICATION_TYPE = U
NORAD_CAT_ID   = 67217
ELEMENT_SET_NO = 999
REV_AT_EPOCH   = 385
BSTAR          = -.97443446E-2
MEAN_MOTION_DOT = -.770812E-2
MEAN_MOTION_DDOT = 0

CCSDS_OMM_VERS = 2.0
CREATION_DATE  = 
ORIGINATOR     = 

OBJECT_NAME    = STARLINK-36211
OBJECT_ID      = 2025-304AC
CENTER_NAME    = EARTH
REF_FRAME      = TEME
TIME_SYSTEM    = UTC
MEAN_ELEMENT_THEORY = SGP/SGP4

EPOCH          = 2026-01-02T22:36:32.963616
MEAN_MOTION    = 15.61795826
ECCENTRICITY   = .0003218
INCLINATION    = 69.9999
RA_OF_ASC_NODE = 347.5496
ARG_OF_PERICENTER = 249.2164
MEAN_ANOMALY   = 110.8683

EPHEMERIS_TYPE = 0
CLASSIFICATION_TYPE = U
NORAD_CAT_ID   = 67218
ELEMENT_SET_NO = 999
REV_AT_EPOCH   = 382
BSTAR          = -.11889177E-1
MEAN_MOTION_DOT = -.937957E-2
MEAN_MOTION_DDOT = 0

CCSDS_OMM_VERS = 2.0
CREATION_DATE  = 
ORIGINATOR     = 

OBJECT_NAME    = DISKSAT A
OBJECT_ID      = 2025-305A
CENTER_NAME    = EARTH
REF_FRAME      = TEME
TIME_SYSTEM    = UTC
MEAN_ELEMENT_THEORY = SGP/SGP4

EPOCH          = 2025-12-20T09:08:30.149664
MEAN_MOTION    = 15.05762698
ECCENTRICITY   = .0003912
INCLINATION    = 45.0057
RA_OF_ASC_NODE = 310.0654
ARG_OF_PERICENTER = 276.1097
MEAN_ANOMALY   = 83.9332

EPHEMERIS_TYPE = 0
CLASSIFICATION_TYPE = U
NORAD_CAT_ID   = 67219
ELEMENT_SET_NO = 999
REV_AT_EPOCH   = 33
BSTAR          = .50887E-4
MEAN_MOTION_DOT = .51E-5
MEAN_MOTION_DDOT = 0

CCSDS_OMM_VERS = 2.0
CREATION_DATE  = 
ORIGINATOR     = 

OBJECT_NAME    = DISKSAT B
OBJECT_ID      = 2025-305B
CENTER_NAME    = EARTH
REF_FRAME      = TEME
TIME_SYSTEM    = UTC
MEAN_ELEMENT_THEORY = SGP/SGP4

EPOCH          = 2025-12-20T05:57:31.803264
MEAN_MOTION    = 15.05702195
ECCENTRICITY   = .0004681
INCLINATION    = 45.0108
RA_OF_ASC_NODE = 310.7693
ARG_OF_PERICENTER = 270.4757
MEAN_ANOMALY   = 89.5581

EPHEMERIS_TYPE = 0
CLASSIFICATION_TYPE = U
NORAD_CAT_ID   = 67220
ELEMENT_SET_NO = 999
REV_AT_EPOCH   = 31
BSTAR          = .51086E-4
MEAN_MOTION_DOT = .511E-5
MEAN_MOTION_DDOT = 0

CCSDS_OMM_VERS = 2.0
CREATION_DATE  = 
ORIGINATOR     = 

OBJECT_NAME    = DISKSAT C
OBJECT_ID      = 2025-305C
CENTER_NAME    = EARTH
REF_FRAME      = TEME
TIME_SYSTEM    = UTC
MEAN_ELEMENT_THEORY = SGP/SGP4

EPOCH          = 2025-12-20T07:33:11.308608
MEAN_MOTION    = 15.05653670
ECCENTRICITY   = .00043877
INCLINATION    = 45.0067
RA_OF_ASC_NODE = 310.4143
ARG_OF_PERICENTER = 282.7791
MEAN_ANOMALY   = 77.2594

EPHEMERIS_TYPE = 0
CLASSIFICATION_TYPE = U
NORAD_CAT_ID   = 67221
ELEMENT_SET_NO = 999
REV_AT_EPOCH   = 31
BSTAR          = .10190761E-3
MEAN_MOTION_DOT = .1256E-4
MEAN_MOTION_DDOT = 0

CCSDS_OMM_VERS = 2.0
CREATION_DATE  = 
ORIGINATOR     = 

OBJECT_NAME    = DISKSAT D
OBJECT_ID      = 2025-305D
CENTER_NAME    = EARTH
REF_FRAME      = TEME
TIME_SYSTEM    = UTC
MEAN_ELEMENT_THEORY = SGP/SGP4

EPOCH          = 2025-12-20T07:33:21.625632
MEAN_MOTION    = 15.05567005
ECCENTRICITY   = .00044772
INCLINATION    = 45.0056
RA_OF_ASC_NODE = 310.4150
ARG_OF_PERICENTER = 287.6101
MEAN_ANOMALY   = 72.4284

EPHEMERIS_TYPE = 0
CLASSIFICATION_TYPE = U
NORAD_CAT_ID   = 67222
ELEMENT_SET_NO = 999
REV_AT_EPOCH   = 31
BSTAR          = .10184381E-3
MEAN_MOTION_DOT = .1252E-4
MEAN_MOTION_DDOT = 0

CCSDS_OMM_VERS = 2.0
CREATION_DATE  = 
ORIGINATOR     = 

OBJECT_NAME    = ELECTRON KICK STAGE R/B
OBJECT_ID      = 2025-305E
CENTER_NAME    = EARTH
REF_FRAME      = TEME
TIME_SYSTEM    = UTC
MEAN_ELEMENT_THEORY = SGP/SGP4

EPOCH          = 2025-12-23T06:58:48.011808
MEAN_MOTION    = 15.48545747
ECCENTRICITY   = .017749
INCLINATION    = 44.9877
RA_OF_ASC_NODE = 292.9264
ARG_OF_PERICENTER = 166.6089
MEAN_ANOMALY   = 193.9601

EPHEMERIS_TYPE = 0
CLASSIFICATION_TYPE = U
NORAD_CAT_ID   = 67223
ELEMENT_SET_NO = 999
REV_AT_EPOCH   = 79
BSTAR          = .18366E-3
MEAN_MOTION_DOT = .18707E-3
MEAN_MOTION_DDOT = 0

CCSDS_OMM_VERS = 2.0
CREATION_DATE  = 
ORIGINATOR     = 

OBJECT_NAME    = ELECTRON R/B
OBJECT_ID      = 2025-305F
CENTER_NAME    = EARTH
REF_FRAME      = TEME
TIME_SYSTEM    = UTC
MEAN_ELEMENT_THEORY = SGP/SGP4

EPOCH          = 2025-12-18T18:27:13.126752
MEAN_MOTION    = 15.64663678
ECCENTRICITY   = .0262888
INCLINATION    = 45.0188
RA_OF_ASC_NODE = 318.3021
ARG_OF_PERICENTER = 280.1207
MEAN_ANOMALY   = 77.0133

EPHEMERIS_TYPE = 0
CLASSIFICATION_TYPE = U
NORAD_CAT_ID   = 67224
ELEMENT_SET_NO = 999
REV_AT_EPOCH   = 9
BSTAR          = .22935E-3
MEAN_MOTION_DOT = .172783E-2
MEAN_MOTION_DDOT = .86369E-5

CCSDS_OMM_VERS = 2.0
CREATION_DATE  = 
ORIGINATOR     = 

OBJECT_NAME    = TJS-23
OBJECT_ID      = 2025-306A
CENTER_NAME    = EARTH
REF_FRAME      = TEME
TIME_SYSTEM    = UTC
MEAN_ELEMENT_THEORY = SGP/SGP4

EPOCH          = 2026-01-02T01:25:25.710240
MEAN_MOTION    = 1.00275899
ECCENTRICITY   = .00010966
INCLINATION    = 5.9661
RA_OF_ASC_NODE = 298.3540
ARG_OF_PERICENTER = 285.2473
MEAN_ANOMALY   = 74.9605

EPHEMERIS_TYPE = 0
CLASSIFICATION_TYPE = U
NORAD_CAT_ID   = 67226
ELEMENT_SET_NO = 999
REV_AT_EPOCH   = 22
BSTAR          = 0
MEAN_MOTION_DOT = .34E-6
MEAN_MOTION_DDOT = 0

